NORAD_CAT_ID,OBJECT_NAME,OBJECT_TYPE,EPOCH,MEAN_MOTION,ECCENTRICITY,INCLINATION,RA_OF_ASC_NODE,ARG_OF_PERICENTER,MEAN_ANOMALY,BSTAR,MEAN_MOTION_DOT,MEAN_MOTION_DDOT,TLE_LINE0,TLE_LINE1,TLE_LINE2,SEMIMAJOR_AXIS,PERIOD,APOGEE,PERIGEE,DECAYED
52867.0,STARLINK-4126,PAYLOAD,2024-06-03 22:14:50,15.08858753,0.0001904,53.2171,34.0819,90.387,269.734,9.0863e-05,1.159e-05,0.0,0 STARLINK-4126,1 52867U 22062AP  24155.92696823  .00001159  00000-0  90863-4 0  9998,2 52867  53.2171  34.0819 0001904  90.3870 269.7340 15.08858753108746,6917.823,95.436,541.005,538.371,0.0
52867.0,STARLINK-4126,PAYLOAD,2024-06-04 09:22:30,15.08870267,8.61e-05,53.2183,31.9989,104.773,255.3357,0.00010519,1.388e-05,0.0,0 STARLINK-4126,1 52867U 22062AP  24156.39063217  .00001388  00000-0  10519-3 0  9998,2 52867  53.2183  31.9989 0000861 104.7730 255.3357 15.08870267109305,6917.788,95.436,540.248,539.057,0.0
52867.0,STARLINK-4126,PAYLOAD,2024-06-04 18:54:51,15.08836471,0.0001376,53.2165,30.2169,93.2439,266.8711,8.5273e-05,1.069e-05,0.0,0 STARLINK-4126,1 52867U 22062AP  24156.78809580  .00001069  00000-0  85273-4 0  9998,2 52867  53.2165  30.2169 0001376  93.2439 266.8711 15.08836471109363,6917.891,95.438,540.708,538.804,0.0
52867.0,STARLINK-4126,PAYLOAD,2024-06-04 22:05:37,15.08836097,9.57e-05,53.218,29.6239,84.5191,275.5911,1.8752e-05,1.1e-07,0.0,0 STARLINK-4126,1 52867U 22062AP  24156.92057411  .00000011  00000-0  18752-4 0  9996,2 52867  53.2180  29.6239 0000957  84.5191 275.5911 15.08836097108892,6917.892,95.438,540.419,539.095,0.0
52867.0,STARLINK-4126,PAYLOAD,2024-06-05 21:56:24,15.08839175,0.0001403,53.2157,25.1599,99.6194,260.4957,3.0899e-05,2.04e-06,0.0,0 STARLINK-4126,1 52867U 22062AP  24157.91417220  .00000204  00000-0  30899-4 0  9994,2 52867  53.2157  25.1599 0001403  99.6194 260.4957 15.08839175109538,6917.883,95.438,540.718,538.777,0.0
52867.0,STARLINK-4126,PAYLOAD,2024-06-07 00:57:57,15.08841169,0.0001042,53.2177,20.1052,97.2851,262.826,7.5998e-05,9.22e-06,0.0,0 STARLINK-4126,1 52867U 22062AP  24159.04025217  .00000922  00000-0  75998-4 0  9997,2 52867  53.2177  20.1052 0001042  97.2851 262.8260 15.08841169109700,6917.877,95.437,540.463,539.021,0.0
52867.0,STARLINK-4126,PAYLOAD,2024-06-07 07:19:29,15.08851931,5.22e-05,53.2224,18.918,87.0311,273.0741,0.00020746,3.017e-05,0.0,0 STARLINK-4126,1 52867U 22062AP  24159.30520421  .00003017  00000-0  20746-3 0  9991,2 52867  53.2224  18.9180 0000522  87.0311 273.0741 15.08851931109740,6917.844,95.437,540.07,539.348,0.0
52867.0,STARLINK-4126,PAYLOAD,2024-06-07 15:16:25,15.0885373,0.0003333,53.2188,17.4306,72.5363,287.5994,0.00028811,4.302e-05,0.0,0 STARLINK-4126,1 52867U 22062AP  24159.63641035  .00004302  00000-0  28811-3 0  9991,2 52867  53.2188  17.4306 0003333  72.5363 287.5994 15.08853730109303,6917.838,95.437,542.009,537.398,0.0
52867.0,STARLINK-4126,PAYLOAD,2024-06-07 21:37:58,15.08840816,0.0001706,53.2223,16.2421,84.6691,275.4496,8.9401e-05,1.135e-05,0.0,0 STARLINK-4126,1 52867U 22062AP  24159.90137503  .00001135  00000-0  89401-4 0  9995,2 52867  53.2223  16.2421 0001706  84.6691 275.4496 15.08840816109830,6917.878,95.438,540.923,538.563,0.0
52867.0,STARLINK-4126,PAYLOAD,2024-06-08 15:07:13,15.08829537,0.0002143,53.2185,12.9714,81.2483,278.8752,-0.00030557,-5.147e-05,0.0,0 STARLINK-4126,1 52867U 22062AP  24160.63002239 -.00005147  00000-0 -30557-3 0  9990,2 52867  53.2185  12.9714 0002143  81.2483 278.8752 15.08829537109450,6917.912,95.438,541.26,538.295,0.0
52867.0,STARLINK-4126,PAYLOAD,2024-06-08 21:28:46,15.08836955,0.0001877,53.2175,11.7832,84.2485,275.8721,-6.103e-05,-1.259e-05,0.0,0 STARLINK-4126,1 52867U 22062AP  24160.89498009 -.00001259  00000-0 -61030-4 0  9993,2 52867  53.2175  11.7832 0001877  84.2485 275.8721 15.08836955109988,6917.89,95.438,541.053,538.456,0.0
52867.0,STARLINK-4126,PAYLOAD,2024-06-09 22:54:56,15.08846098,0.0001255,53.2188,7.0229,81.0554,279.058,0.00030514,4.573e-05,0.0,0 STARLINK-4126,1 52867U 22062AP  24161.95481978  .00004573  00000-0  30514-3 0  9990,2 52867  53.2188   7.0229 0001255  81.0554 279.0580 15.08846098109654,6917.862,95.437,540.595,538.859,0.0
52867.0,STARLINK-4126,PAYLOAD,2024-06-10 06:51:51,15.08855773,0.0001296,53.2179,5.5347,72.1305,287.9828,0.00055798,8.607e-05,0.0,0 STARLINK-4126,1 52867U 22062AP  24162.28601676  .00008607  00000-0  55798-3 0  9999,2 52867  53.2179   5.5347 0001296  72.1305 287.9828 15.08855773109707,6917.832,95.437,540.594,538.801,0.0
52867.0,STARLINK-4126,PAYLOAD,2024-06-10 21:10:20,15.08841194,0.0001158,53.2176,2.8595,79.1186,280.9936,0.00015231,2.137e-05,0.0,0 STARLINK-4126,1 52867U 22062AP  24162.88218119  .00002137  00000-0  15231-3 0  9991,2 52867  53.2176   2.8595 0001158  79.1186 280.9936 15.08841194110280,6917.877,95.437,540.543,538.941,0.0
52867.0,STARLINK-4126,PAYLOAD,2024-06-10 22:45:43,15.08844973,0.0001148,53.2177,2.5603,83.027,277.0853,0.00024963,3.688e-05,0.0,0 STARLINK-4126,1 52867U 22062AP  24162.94842025  .00003688  00000-0  24963-3 0  9991,2 52867  53.2177   2.5603 0001148  83.0270 277.0853 15.08844973109804,6917.865,95.437,540.524,538.936,0.0
52867.0,STARLINK-4126,PAYLOAD,2024-06-11 06:42:39,15.08852429,0.0001174,53.2176,1.0769,75.5576,284.5547,0.00051702,7.953e-05,0.0,0 STARLINK-4126,1 52867U 22062AP  24163.27961815  .00007953  00000-0  51702-3 0  9997,2 52867  53.2176   1.0769 0001174  75.5576 284.5547 15.08852429109857,6917.842,95.437,540.52,538.895,0.0
52867.0,STARLINK-4126,PAYLOAD,2024-06-12 06:33:26,15.08844803,0.0001429,53.22,356.6124,103.1378,256.9774,0.00025187,3.723e-05,0.0,0 STARLINK-4126,1 52867U 22062AP  24164.27322001  .00003723  00000-0  25187-3 0  9995,2 52867  53.2200 356.6124 0001429 103.1378 256.9774 15.08844803110494,6917.866,95.437,540.719,538.742,0.0
52867.0,STARLINK-4126,PAYLOAD,2024-06-12 19:16:32,15.08828767,0.0001388,53.219,354.2355,99.8922,260.2226,-6.6121e-05,-1.34e-05,0.0,0 STARLINK-4126,1 52867U 22062AP  24164.80314860 -.00001340  00000-0 -66121-4 0  9997,2 52867  53.2190 354.2355 0001388  99.8922 260.2226 15.08828767110572,6917.915,95.438,540.74,538.82,0.0
52867.0,STARLINK-4126,PAYLOAD,2024-06-12 22:27:18,15.088318,0.0001291,53.2185,353.6412,99.9489,260.1649,-1.0943e-05,-4.62e-06,0.0,0 STARLINK-4126,1 52867U 22062AP  24164.93562861 -.00000462  00000-0 -10943-4 0  9992,2 52867  53.2185 353.6412 0001291  99.9489 260.1649 15.08831800110104,6917.905,95.438,540.664,538.877,0.0
52867.0,STARLINK-4126,PAYLOAD,2024-06-13 19:07:18,15.08848506,0.0001233,53.2185,349.7754,101.968,258.145,0.00032445,4.881e-05,0.0,0 STARLINK-4126,1 52867U 22062AP  24165.79674515  .00004881  00000-0  32445-3 0  9994,2 52867  53.2185 349.7754 0001233 101.9680 258.1450 15.08848506110234,6917.854,95.437,540.572,538.866,0.0
52867.0,STARLINK-4126,PAYLOAD,2024-06-14 12:36:33,15.08849906,0.0001306,53.2185,346.5048,101.1937,258.9202,0.00037282,5.652e-05,0.0,0 STARLINK-4126,1 52867U 22062AP  24166.52538522  .00005652  00000-0  37282-3 0  9994,2 52867  53.2185 346.5048 0001306 101.1937 258.9202 15.08849906110343,6917.85,95.437,540.619,538.812,0.0
52867.0,STARLINK-4126,PAYLOAD,2024-06-14 18:58:06,15.08841368,0.0001057,53.2178,345.316,96.3732,263.738,0.00027059,4.021e-05,0.0,0 STARLINK-4126,1 52867U 22062AP  24166.79034805  .00004021  00000-0  27059-3 0  9998,2 52867  53.2178 345.3160 0001057  96.3732 263.7380 15.08841368110387,6917.876,95.437,540.472,539.01,0.0
52867.0,STARLINK-4126,PAYLOAD,2024-06-15 04:30:24,15.08852475,0.0001185,53.2184,343.5335,102.2813,257.8312,0.0002426,3.577e-05,0.0,0 STARLINK-4126,1 52867U 22062AP  24167.18778113  .00003577  00000-0  24260-3 0  9995,2 52867  53.2184 343.5335 0001185 102.2813 257.8312 15.08852475110444,6917.842,95.437,540.527,538.887,0.0
52867.0,STARLINK-4126,PAYLOAD,2024-06-15 18:48:53,15.08837707,0.000146,53.2193,340.8609,114.0144,246.1001,-5.5238e-05,-1.167e-05,0.0,0 STARLINK-4126,1 52867U 22062AP  24167.78394695 -.00001167  00000-0 -55238-4 0  9995,2 52867  53.2193 340.8609 0001460 114.0144 246.1001 15.08837707110539,6917.887,95.438,540.762,538.742,0.0
52867.0,STARLINK-4126,PAYLOAD,2024-06-16 04:21:10,15.08853457,0.0001082,53.2177,339.0675,68.2049,291.9058,0.00017845,2.554e-05,0.0,0 STARLINK-4126,1 52867U 22062AP  24168.18137626  .00002554  00000-0  17845-3 0  9999,2 52867  53.2177 339.0675 0001082  68.2049 291.9058 15.08853457110594,6917.839,95.437,540.453,538.956,0.0
52867.0,STARLINK-4126,PAYLOAD,2024-06-16 21:50:26,15.08839768,0.0001313,53.219,335.8005,81.6955,278.4186,8.507e-05,1.066e-05,0.0,0 STARLINK-4126,1 52867U 22062AP  24168.91002633  .00001066  00000-0  85070-4 0  9992,2 52867  53.2190 335.8005 0001313  81.6955 278.4186 15.08839768110706,6917.881,95.438,540.654,538.838,0.0
52867.0,STARLINK-4126,PAYLOAD,2024-06-17 20:05:50,15.08833806,0.0001335,53.2186,331.6378,80.6777,279.4366,8.7684e-05,1.108e-05,0.0,0 STARLINK-4126,1 52867U 22062AP  24169.83739152  .00001108  00000-0  87684-4 0  9997,2 52867  53.2186 331.6378 0001335  80.6777 279.4366 15.08833806111331,6917.899,95.438,540.688,538.841,0.0
52867.0,STARLINK-4126,PAYLOAD,2024-06-18 04:02:45,15.08845394,0.0001226,53.2185,330.1518,81.4806,278.6325,0.00022819,3.346e-05,0.0,0 STARLINK-4126,1 52867U 22062AP  24170.16858744  .00003346  00000-0  22819-3 0  9998,2 52867  53.2185 330.1518 0001226  81.4806 278.6325 15.08845394111387,6917.864,95.437,540.577,538.881,0.0
52867.0,STARLINK-4126,PAYLOAD,2024-06-18 10:24:18,15.08842002,0.0001234,53.2163,328.963,81.6756,278.4376,0.00029763,4.452e-05,0.0,0 STARLINK-4126,1 52867U 22062AP  24170.43354993  .00004452  00000-0  29763-3 0  9999,2 52867  53.2163 328.9630 0001234  81.6756 278.4376 15.08842002110935,6917.874,95.437,540.593,538.886,0.0
52867.0,STARLINK-4126,PAYLOAD,2024-06-18 16:45:51,15.08841739,0.0001229,53.2167,327.7739,81.6977,278.4155,0.00025075,3.705e-05,0.0,0 STARLINK-4126,1 52867U 22062AP  24170.69851079  .00003705  00000-0  25075-3 0  9996,2 52867  53.2167 327.7739 0001229  81.6977 278.4155 15.08841739111465,6917.875,95.437,540.59,538.89,0.0
